STARLINK-11709 [DTC]    
1 64065U 25107B   26004.33336806 -.00293898  00000+0 -23571-2 0  9990
2 64065  43.0004 126.3965 0002574 264.1129 100.5175 15.70950405  6000
STARLINK-11737 [DTC]    
1 64066U 25107C   26003.80797272  .00224790  00000+0  17040-2 0  9997
2 64066  42.9997 129.3375 0001935 287.0412  73.0244 15.70901605 37099
STARLINK-11726 [DTC]    
1 64067U 25107D   26003.73376595  .00284969  00000+0  21515-2 0  9997
2 64067  43.0005 129.6359 0003017 272.7176  87.3346 15.70811057 37089
STARLINK-11700 [DTC]    
1 64068U 25107E   26003.70826051  .00141282  00000+0  10825-2 0  9994
2 64068  42.9998 130.3249 0002325 280.4460  79.6146 15.70913171 37070
STARLINK-11649 [DTC]    
1 64069U 25107F   26004.04120824  .00292867  00000+0  22035-2 0  9990
2 64069  42.9999 128.5291 0001094 308.5113  51.5657 15.70870658 37121
STARLINK-11713 [DTC]    
1 64070U 25107G   26003.81858791  .00273322  00000+0  20570-2 0  9994
2 64070  43.0000 129.4206 0001915 269.4140  90.6508 15.70924216 37096
STARLINK-11719 [DTC]    
1 64071U 25107H   26004.27961091  .00241236  00000+0  18292-2 0  9991
2 64071  43.0000 126.8666 0001371 289.1763  70.8956 15.70843569 37160
STARLINK-11733 [DTC]    
1 64072U 25107J   26003.73908327  .00369012  00000+0  27396-2 0  9993
2 64072  43.0005 129.6757 0002681 314.9995  45.0655 15.70960643 37081
STARLINK-11729 [DTC]    
1 64073U 25107K   26004.03059151  .00479023  00000+0  35114-2 0  9991
2 64073  43.0002 128.4410 0001626 332.2136  27.8645 15.70937018 37122
STARLINK-11730 [DTC]    
1 64074U 25107L   26003.82919734  .00322445  00000+0  24043-2 0  9994
2 64074  42.9995 129.5052 0002857 270.8612  89.1929 15.70995891 37094
STARLINK-11723 [DTC]    
1 64075U 25107M   26004.32195381  .00295979  00000+0  22169-2 0  9993
2 64075  43.0002 126.3118 0002034 263.4170  96.6466 15.70968983 37178
STARLINK-11715 [DTC]    
1 64076U 25107N   26002.71112909  .00067378  00000+0  52343-3 0  9998
2 64076  42.9992 135.7198 0001626 275.5695  84.4987 15.70881199 36927
STARLINK-34201          
1 64077U 25107P   26003.93396650  .00047664  00000+0  17296-2 0  9994
2 64077  43.0022 207.5384 0001903 263.8326  96.2309 15.27595510 35129
STARLINK-34190          
1 64078U 25107Q   26003.97365348  .00043598  00000+0  15830-2 0  9993
2 64078  42.9999 206.9706 0002026 270.0624  89.9996 15.27610860 36229
STARLINK-34168          
1 64079U 25107R   26003.95566490  .00035890  00000+0  13065-2 0  9997
2 64079  43.0037 206.8393 0002144 280.7047  79.3563 15.27602822 36226
STARLINK-34098          
1 64080U 25107S   26003.89797304  .00020226  00000+0  74259-3 0  9992
2 64080  42.9987 207.2582 0001946 265.4771  94.5859 15.27574695 36210
STARLINK-34180          
1 64081U 25107T   26004.24677131  .00024603  00000+0  90066-3 0  9995
2 64081  42.9947 205.5826 0000909  57.5501 302.5439 15.27577807 36267
STARLINK-34171          
1 64082U 25107U   26003.55949313  .00036602  00000+0  13315-2 0  9996
2 64082  42.9966 209.0234 0000374  65.3304 294.7586 15.27618149 36164
STARLINK-34126          
1 64083U 25107V   26004.25703446  .00039799  00000+0  14463-2 0  9995
2 64083  43.0009 205.6591 0003023 269.6233  90.4272 15.27616729 35172
STARLINK-34157          
1 64084U 25107W   26003.89541390  .00032569  00000+0  11868-2 0  9997
2 64084  43.0001 207.2384 0001975 262.7065  97.3562 15.27609438 36194
STARLINK-34140          
1 64085U 25107X   26004.04674872  .00032971  00000+0  12014-2 0  9999
2 64085  42.9982 206.6576 0001621 281.8412  78.2258 15.27603401 36210
STARLINK-34132          
1 64086U 25107Y   26004.25319624  .00026799  00000+0  97995-3 0  9997
2 64086  42.9918 205.6305 0000453 317.3346  42.7470 15.27575484 36235
2025-108A               
1 64087U 25108A   26004.25278204  .00008858  00000+0  48763-3 0  9992
2 64087  97.4951  81.4680 0003731 131.1499 229.0056 15.14265015 34495
2025-108B               
1 64088U 25108B   26004.28909597  .00014542  00000+0  73331-3 0  9998
2 64088  97.4911  81.9167 0011950 216.0828 143.9600 15.17184236 34495
2025-108C               
1 64089U 25108C   26004.28236715  .00008950  00000+0  50929-3 0  9998
2 64089  97.4878  81.5193 0013592 207.8749 152.1755 15.13000212 34475
2025-108D               
1 64090U 25108D   26004.30036538  .00008664  00000+0  44363-3 0  9991
2 64090  97.4873  81.9480 0012039 209.5622 150.4932 15.16782312 34502
2025-108E               
1 64091U 25108E   26004.26069735  .00021697  00000+0  10237-2 0  9995
2 64091  97.4860  82.1333 0012729 211.4038 148.6437 15.19407457 34515
2025-108F               
1 64092U 25108F   26004.29353463  .00022777  00000+0  10287-2 0  9998
2 64092  97.4872  82.3906 0012528 213.5354 146.5090 15.20904993 34531
COSMOS 2588             
1 64095U 25109A   26003.77662014  .00013173  00000+0  46032-3 0  9997
2 64095  72.9701 220.7188 0009979 120.8669 239.3510 15.29565364 34484
STARLINK-34178          
1 64096U 25110A   26004.18653844  .00054781  00000+0  18490-2 0  9993
2 64096  53.1595 326.5930 0001101  80.1755 279.9370 15.30184893 36000
STARLINK-34174          
1 64097U 25110B   26004.18020523  .00003402  00000+0  12695-3 0  9992
2 64097  53.1595 326.5654 0001244  70.4908 289.6227 15.30195674 36002
STARLINK-34146          
1 64098U 25110C   26004.30450537  .00041202  00000+0  13963-2 0  9997
2 64098  53.1598 325.9167 0001151  72.0893 288.0233 15.30182795 36028
STARLINK-34074          
1 64099U 25110D   26004.19181201 -.00003967  00000+0 -12190-3 0  9994
2 64099  53.1610 326.6297 0001080  96.0303 264.0821 15.30192067 36007
STARLINK-34082          
1 64100U 25110E   26004.18970550  .00065846  00000+0  22179-2 0  9998
2 64100  53.1604 326.6220 0001447  81.2224 278.8941 15.30166911 36009
STARLINK-34072          
1 64101U 25110F   26004.18337218  .00066008  00000+0  22233-2 0  9999
2 64101  53.1595 326.5833 0001121  75.2921 284.8204 15.30167772 36009
STARLINK-34104          
1 64102U 25110G   26004.30766989  .00042270  00000+0  14319-2 0  9996
2 64102  53.1593 325.9352 0001040  69.7302 290.3810 15.30182779 36029
STARLINK-34179          
1 64103U 25110H   26004.19498208  .00051425  00000+0  17381-2 0  9994
2 64103  53.1607 326.6492 0001128  77.9869 282.1258 15.30167934 36004
STARLINK-34176          
1 64104U 25110J   26004.18864762  .00017993  00000+0  61816-3 0  9991
2 64104  53.1601 326.6096 0000880  79.3657 280.7443 15.30199457 36009
STARLINK-33949          
1 64105U 25110K   26004.18548187  .00051189  00000+0  17296-2 0  9999
2 64105  53.1599 326.5911 0000950  49.1296 310.9787 15.30181117 36004
STARLINK-33970          
1 64106U 25110L   26004.17598076  .00020823  00000+0  71345-3 0  9998
2 64106  53.1599 326.5344 0001199  75.7733 284.3401 15.30188789 36001
STARLINK-33912          
1 64107U 25110M   26004.17176209  .00029873  00000+0  10176-2 0  9997
2 64107  53.1598 326.5063 0001006  75.8579 284.2533 15.30171966 36009
STARLINK-34156          
1 64108U 25110N   26004.16226401  .00017382  00000+0  59783-3 0  9997
2 64108  53.1615 326.4468 0001115  72.9754 287.1369 15.30189319 36002
STARLINK-34124          
1 64109U 25110P   26004.29922824  .00045032  00000+0  15243-2 0  9999
2 64109  53.1597 325.8777 0001181  70.1558 289.9570 15.30179370 36025
STARLINK-34145          
1 64110U 25110Q   26004.17915068  .00072475  00000+0  24373-2 0  9995
2 64110  53.1600 326.5502 0001135  79.2482 280.8647 15.30174144 36008
STARLINK-34148          
1 64111U 25110R   26004.28972965  .00043844  00000+0  14846-2 0  9999
2 64111  53.1621 325.8177 0001168  90.0649 270.0486 15.30181025 36024
STARLINK-34136          
1 64112U 25110S   26004.29606242  .00030872  00000+0  10495-2 0  9996
2 64112  53.1611 325.8582 0001327  94.2878 265.8274 15.30220525 36027
STARLINK-33839          
1 64113U 25110T   26004.28340241  .00042017  00000+0  14240-2 0  9996
2 64113  53.1620 325.7797 0001543  62.5204 297.5954 15.30172069 36022
STARLINK-34064          
1 64114U 25110U   26004.30344935  .00042280  00000+0  14326-2 0  9991
2 64114  53.1602 325.9040 0001137  72.8754 287.2371 15.30175966 36027
STARLINK-34067          
1 64115U 25110V   26004.27706708  .00018515  00000+0  63564-3 0  9991
2 64115  53.1624 325.7413 0001339  55.1733 304.9394 15.30202509 36025
STARLINK-34080          
1 64116U 25110W   26004.28023067  .00024352  00000+0  83291-3 0  9998
2 64116  53.1618 325.7585 0001530  79.0872 281.0301 15.30150064 36011
STARLINK-34122          
1 64117U 25110X   26004.27390243  .00028207  00000+0  96160-3 0  9993
2 64117  53.1620 325.7174 0001133  83.2064 276.9066 15.30174876 36027
STARLINK-33964          
1 64118U 25110Y   26004.28656185  .00013958  00000+0  48245-3 0  9993
2 64118  53.1615 325.7997 0001031  68.6477 291.4634 15.30204266 36027
STARLINK-34160          
1 64119U 25110Z   26004.27073483  .00031442  00000+0  10701-2 0  9990
2 64119  53.1614 325.6991 0001111  69.4818 290.6302 15.30172722 36021
STARLINK-34151          
1 64120U 25110AA  26004.06539964  .00015314  00000+0  52803-3 0  9990
2 64120  53.1610 327.2560 0001003  91.2720 268.8395 15.30205381 35985
STARLINK-34189          
1 64121U 25110AB  26004.19286992  .00036833  00000+0  12508-2 0  9991
2 64121  53.1615 326.6282 0001259  61.5007 298.6121 15.30167109 36003
STARLINK-33991          
1 64122U 25110AC  26004.20119260  .00043949  00000+0  14900-2 0  9991
2 64122  53.1606 325.9736 0001431  50.7517 309.3610 15.30138998 36005
STARLINK-11727 [DTC]    
1 64123U 25111A   26004.26801797  .00167829  00000+0  12835-2 0  9991
2 64123  43.0043   2.4897 0002861 260.7941  99.2603 15.70868879 36500
STARLINK-11724 [DTC]    
1 64124U 25111B   26004.04540865  .00360854  00000+0  26738-2 0  9994
2 64124  42.9993   3.3799 0002582 216.6372 143.4319 15.71032153 36473
STARLINK-11725 [DTC]    
1 64125U 25111C   26003.99775204  .00402933  00000+0  29669-2 0  9996
2 64125  42.9989   3.8915 0002515 232.8689 127.1949 15.71056280 36465
